EXCITE                  
1 43819U 18099BP  26068.69809098  .00002813  00000+0  19631-3 0  9999
2 43819  97.4107 111.3606 0017626 337.4818  22.5634 15.06036758396774
STARLINK-5106           
1 54823U 22177D   26068.23095219 -.00000422  00000+0 -16203-4 0  9999
2 54823  43.0060 136.0572 0001123 254.3971 105.6747 15.02534164176880
